{"type": "FeatureCollection", "features": [ {"type": "Feature", "properties": {"norad_id": 66541, "name": "STARLINK-35796", "group": "last-30-days", "lat": -19.31682603730589, "lon": -59.71173498485266, "alt_km": 358.4113537725234, "timestamp": "2025-12-05T05:43:13.896933+00:00", "meta": {"OBJECT_NAME": "STARLINK-35796", "OBJECT_ID": "2025-265AB", "EPOCH": "2025-12-04T18:00:02.000160", "MEAN_MOTION": 15.7274753, "ECCENTRICITY": 0.0001592, "INCLINATION": 43.0002, "RA_OF_ASC_NODE": 101.1409, "ARG_OF_PERICENTER": 283.1172, "MEAN_ANOMALY": 39.3414, "EPHEMERIS_TYPE": 0, "CLASSIFICATION_TYPE": "U", "NORAD_CAT_ID": 66541, "ELEMENT_SET_NO": 999, "REV_AT_EPOCH": 371, "BSTAR": -0.015041, "MEAN_MOTION_DOT": -0.01828392, "MEAN_MOTION_DDOT": 0}, "tle": {"line1": "1 66541U 25265AB  25338.75002315 -.01828392  00000+0 -15041-1 0  9992", "line2": "2 66541  43.0002 101.1409 0001592 283.1172  39.3414 15.72747530  3716"}}, "geometry": {"type": "Point", "coordinates": [-59.71173498485266, -19.31682603730589]}}, {"type": "Feature", "properties": {"norad_id": 66542, "name": "STARLINK-35833", "group": "last-30-days", "lat": -20.522458852355573, "lon": -58.12723805593324, "alt_km": 358.4629918215405, "timestamp": "2025-12-05T05:43:13.896942+00:00", "meta": {"OBJECT_NAME": "STARLINK-35833", "OBJECT_ID": "2025-265AC", "EPOCH": "2025-12-04T18:00:02.000160", "MEAN_MOTION": 15.72748156, "ECCENTRICITY": 0.0001263, "INCLINATION": 43.0003, "RA_OF_ASC_NODE": 101.1365, "ARG_OF_PERICENTER": 279.9959, "MEAN_ANOMALY": 44.3806, "EPHEMERIS_TYPE": 0, "CLASSIFICATION_TYPE": "U", "NORAD_CAT_ID": 66542, "ELEMENT_SET_NO": 999, "REV_AT_EPOCH": 371, "BSTAR": -0.015061, "MEAN_MOTION_DOT": -0.01830271, "MEAN_MOTION_DDOT": 0}, "tle": {"line1": "1 66542U 25265AC  25338.75002315 -.01830271  00000+0 -15061-1 0  9994", "line2": "2 66542  43.0003 101.1365 0001263 279.9959  44.3806 15.72748156  3716"}}, "geometry": {"type": "Point", "coordinates": [-58.12723805593324, -20.522458852355573]}}, {"type": "Feature", "properties": {"norad_id": 66543, "name": "STARLINK-35315", "group": "last-30-days", "lat": -21.708807166227736, "lon": -56.52491200479416, "alt_km": 358.5980803345956, "timestamp": "2025-12-05T05:43:13.896952+00:00", "meta": {"OBJECT_NAME": "STARLINK-35315", "OBJECT_ID": "2025-265AD", "EPOCH": "2025-12-04T18:00:02.000160", "MEAN_MOTION": 15.72744577, "ECCENTRICITY": 0.0001527, "INCLINATION": 43.0002, "RA_OF_ASC_NODE": 101.131, "ARG_OF_PERICENTER": 285.5858, "MEAN_ANOMALY": 40.7079, "EPHEMERIS_TYPE": 0, "CLASSIFICATION_TYPE": "U", "NORAD_CAT_ID": 66543, "ELEMENT_SET_NO": 999, "REV_AT_EPOCH": 360, "BSTAR": -0.015008, "MEAN_MOTION_DOT": -0.0182465, "MEAN_MOTION_DDOT": 0}, "tle": {"line1": "1 66543U 25265AD  25338.75002315 -.01824650  00000+0 -15008-1 0  9990", "line2": "2 66543  43.0002 101.1310 0001527 285.5858  40.7079 15.72744577  3603"}}, "geometry": {"type": "Point", "coordinates": [-56.52491200479416, -21.708807166227736]}}, {"type": "Feature", "properties": {"norad_id": 66544, "name": "STARLINK-35728", "group": "last-30-days", "lat": -22.88421818416799, "lon": -54.888179956282734, "alt_km": 358.54376050970586, "timestamp": "2025-12-05T05:43:13.896964+00:00", "meta": {"OBJECT_NAME": "STARLINK-35728", "OBJECT_ID": "2025-265AE", "EPOCH": "2025-12-04T18:00:02.000160", "MEAN_MOTION": 15.72747217, "ECCENTRICITY": 0.0001256, "INCLINATION": 43.0002, "RA_OF_ASC_NODE": 101.1266, "ARG_OF_PERICENTER": 278.1157, "MEAN_ANOMALY": 50.0961, "EPHEMERIS_TYPE": 0, "CLASSIFICATION_TYPE": "U", "NORAD_CAT_ID": 66544, "ELEMENT_SET_NO": 999, "REV_AT_EPOCH": 371, "BSTAR": -0.015052, "MEAN_MOTION_DOT": -0.01829293, "MEAN_MOTION_DDOT": 0}, "tle": {"line1": "1 66544U 25265AE  25338.75002315 -.01829293  00000+0 -15052-1 0  9998", "line2": "2 66544  43.0002 101.1266 0001256 278.1157  50.0961 15.72747217  3713"}}, "geometry": {"type": "Point", "coordinates": [-54.888179956282734, -22.88421818416799]}}, {"type": "Feature", "properties": {"norad_id": 66545, "name": "SHIJIAN-30A", "group": "last-30-days", "lat": -5.019066337430931, "lon": 4.036192078139182, "alt_km": 512.9908568525534, "timestamp": "2025-12-05T05:43:13.896976+00:00", "meta": {"OBJECT_NAME": "SHIJIAN-30A", "OBJECT_ID": "2025-266A", "EPOCH": "2025-12-04T17:05:12.098976", "MEAN_MOTION": 15.15395635, "ECCENTRICITY": 0.0012832, "INCLINATION": 51.7998, "RA_OF_ASC_NODE": 10.4683, "ARG_OF_PERICENTER": 328.04, "MEAN_ANOMALY": 31.9797, "EPHEMERIS_TYPE": 0, "CLASSIFICATION_TYPE": "U", "NORAD_CAT_ID": 66545, "ELEMENT_SET_NO": 999, "REV_AT_EPOCH": 236, "BSTAR": 0.0011541, "MEAN_MOTION_DOT": 0.00021866, "MEAN_MOTION_DDOT": 0}, "tle": {"line1": "1 66545U 25266A   25338.71194559  .00021866  00000+0  11541-2 0  9995", "line2": "2 66545  51.7998  10.4683 0012832 328.0400  31.9797 15.15395635  2362"}}, "geometry": {"type": "Point", "coordinates": [4.036192078139182, -5.019066337430931]}}, {"type": "Feature", "properties": {"norad_id": 66546, "name": "SHIJIAN-30B", "group": "last-30-days", "lat": -8.89869000307376, "lon": 0.9268500842154772, "alt_km": 514.347296427446, "timestamp": "2025-12-05T05:43:13.896987+00:00", "meta": {"OBJECT_NAME": "SHIJIAN-30B", "OBJECT_ID": "2025-266B", "EPOCH": "2025-12-04T17:06:32.703264", "MEAN_MOTION": 15.15466175, "ECCENTRICITY": 0.00105, "INCLINATION": 51.7981, "RA_OF_ASC_NODE": 10.4721, "ARG_OF_PERICENTER": 331.0664, "MEAN_ANOMALY": 28.9729, "EPHEMERIS_TYPE": 0, "CLASSIFICATION_TYPE": "U", "NORAD_CAT_ID": 66546, "ELEMENT_SET_NO": 999, "REV_AT_EPOCH": 236, "BSTAR": 0.0013161, "MEAN_MOTION_DOT": 0.00025025, "MEAN_MOTION_DDOT": 0}, "tle": {"line1": "1 66546U 25266B   25338.71287851  .00025025  00000+0  13161-2 0  9995", "line2": "2 66546  51.7981  10.4721 0010500 331.0664  28.9729 15.15466175  2363"}}, "geometry": {"type": "Point", "coordinates": [0.9268500842154772, -8.89869000307376]}}, {"type": "Feature", "properties": {"norad_id": 66547, "name": "SHIJIAN-30C", "group": "last-30-days", "lat": -11.941410961253247, "lon": -1.5688152272171343, "alt_km": 514.192337813889, "timestamp": "2025-12-05T05:43:13.896997+00:00", "meta": {"OBJECT_NAME": "SHIJIAN-30C", "OBJECT_ID": "2025-266C", "EPOCH": "2025-12-04T17:07:35.369184", "MEAN_MOTION": 15.15495105, "ECCENTRICITY": 0.001136, "INCLINATION": 51.7993, "RA_OF_ASC_NODE": 10.4772, "ARG_OF_PERICENTER": 323.1622, "MEAN_ANOMALY": 36.8573, "EPHEMERIS_TYPE": 0, "CLASSIFICATION_TYPE": "U", "NORAD_CAT_ID": 66547, "ELEMENT_SET_NO": 999, "REV_AT_EPOCH": 236, "BSTAR": 0.0012189, "MEAN_MOTION_DOT": 0.00023171, "MEAN_MOTION_DDOT": 0}, "tle": {"line1": "1 66547U 25266C   25338.71360381  .00023171  00000+0  12189-2 0  9995", "line2": "2 66547  51.7993  10.4772 0011360 323.1622  36.8573 15.15495105  2364"}}, "geometry": {"type": "Point", "coordinates": [-1.5688152272171343, -11.941410961253247]}}, {"type": "Feature", "properties": {"norad_id": 66548, "name": "CZ-2C R/B", "group": "last-30-days", "lat": 51.72328974771434, "lon": 105.58863661794805, "alt_km": 433.1580136656685, "timestamp": "2025-12-05T05:43:13.897009+00:00", "meta": {"OBJECT_NAME": "CZ-2C R/B", "OBJECT_ID": "2025-266D", "EPOCH": "2025-12-04T16:45:47.744928", "MEAN_MOTION": 15.29913665, "ECCENTRICITY": 0.0084589, "INCLINATION": 52.0558, "RA_OF_ASC_NODE": 9.5833, "ARG_OF_PERICENTER": 145.7041, "MEAN_ANOMALY": 214.9448, "EPHEMERIS_TYPE": 0, "CLASSIFICATION_TYPE": "U", "NORAD_CAT_ID": 66548, "ELEMENT_SET_NO": 999, "REV_AT_EPOCH": 238, "BSTAR": 0.0007206, "MEAN_MOTION_DOT": 0.00023297, "MEAN_MOTION_DDOT": 0}, "tle": {"line1": "1 66548U 25266D   25338.69846927  .00023297  00000+0  72060-3 0  9992", "line2": "2 66548  52.0558   9.5833 0084589 145.7041 214.9448 15.29913665  2382"}}, "geometry": {"type": "Point", "coordinates": [105.58863661794805, 51.72328974771434]}}, {"type": "Feature", "properties": {"norad_id": 66549, "name": "SHIJIAN-28", "group": "last-30-days", "lat": 5.871381417701556, "lon": -62.91515828651342, "alt_km": 29218.535602224587, "timestamp": "2025-12-05T05:43:13.897020+00:00", "meta": {"OBJECT_NAME": "SHIJIAN-28", "OBJECT_ID": "2025-277A", "EPOCH": "2025-11-30T18:06:43.124256", "MEAN_MOTION": 2.28019775, "ECCENTRICITY": 0.7300519, "INCLINATION": 14.4344, "RA_OF_ASC_NODE": 275.4056, "ARG_OF_PERICENTER": 179.5026, "MEAN_ANOMALY": 182.358, "EPHEMERIS_TYPE": 0, "CLASSIFICATION_TYPE": "U", "NORAD_CAT_ID": 66549, "ELEMENT_SET_NO": 999, "REV_AT_EPOCH": 4, "BSTAR": 0.00062085, "MEAN_MOTION_DOT": 6.315e-05, "MEAN_MOTION_DDOT": 0}, "tle": {"line1": "1 66549U 25277A   25334.75466579  .00006315  00000+0  62085-3 0  9997", "line2": "2 66549  14.4344 275.4056 7300519 179.5026 182.3580  2.28019775    48"}}, "geometry": {"type": "Point", "coordinates": [-62.91515828651342, 5.871381417701556]}}, {"type": "Feature", "properties": {"norad_id": 66550, "name": "CZ-7A R/B", "group": "last-30-days", "lat": -3.9062463275961927, "lon": -101.77593694535098, "alt_km": 29700.234491477375, "timestamp": "2025-12-05T05:43:13.897035+00:00", "meta": {"OBJECT_NAME": "CZ-7A R/B", "OBJECT_ID": "2025-277B", "EPOCH": "2025-12-01T03:57:29.558880", "MEAN_MOTION": 2.40161271, "ECCENTRICITY": 0.72362879, "INCLINATION": 14.4278, "RA_OF_ASC_NODE": 275.378, "ARG_OF_PERICENTER": 178.5774, "MEAN_ANOMALY": 186.2906, "EPHEMERIS_TYPE": 0, "CLASSIFICATION_TYPE": "U", "NORAD_CAT_ID": 66550, "ELEMENT_SET_NO": 999, "REV_AT_EPOCH": 5, "BSTAR": 4.4603974e-05, "MEAN_MOTION_DOT": 0.00016399, "MEAN_MOTION_DDOT": -7.1945e-08}, "tle": {"line1": "1 66550U 25277B   25335.16492545  .00016399 -71945-7  44604-4 0  9993", "line2": "2 66550  14.4278 275.3780 7236287 178.5774 186.2906  2.40161271    57"}}, "geometry": {"type": "Point", "coordinates": [-101.77593694535098, -3.9062463275961927]}}]}